ORBCOMM FM05            
1 25117U 97084F   25342.22219733  .00003061  00000+0  87833-3 0  9990
2 25117  45.0134 252.0394 0003404   4.0895 355.9985 14.46683991465805
ORBCOMM FM06            
1 25118U 97084G   25342.15502880  .00002426  00000+0  70217-3 0  9993
2 25118  45.0126 251.8922 0002349 359.2204 144.2935 14.46843357466716
ORBCOMM FM07            
1 25119U 97084H   25342.13991139  .00002491  00000+0  71970-3 0  9990
2 25119  45.0124 252.7155 0004249   3.0149 357.0728 14.46853889466700
ORBCOMM FM03            
1 25158U 98007B   25342.29525194  .00002276  00000+0  83359-3 0  9995
2 25158 107.9637 133.3596 0046363 302.0598  57.6044 14.35007230449014
ORBCOMM FM04            
1 25159U 98007C   25342.31942669  .00002414  00000+0  87894-3 0  9991
2 25159 107.9628 136.7488 0042237 299.2464  60.4456 14.35252403449201
ORBCOMM FM17            
1 25413U 98046A   25342.20414260  .00001710  00000+0  63740-3 0  9998
2 25413  44.9924 156.0963 0002313  20.9415 339.1527 14.35520450428170
ORBCOMM FM18            
1 25414U 98046B   25342.28491327  .00002723  00000+0  91719-3 0  9998
2 25414  44.9928  68.3759 0003052 100.9524 259.1668 14.39133892429323
ORBCOMM FM19            
1 25415U 98046C   25342.33298977  .00002514  00000+0  85321-3 0  9991
2 25415  44.9939  70.4135 0001822 105.3969 302.4285 14.38953168429280
